SITRO-AIS 27            
1 59068U 24039T   24125.53329908  .00004626  00000+0  44670-3 0  9990
2 59068  95.4011  67.8249 0174990 132.4133 229.2044 14.82191835  9647
SITRO-AIS 28            
1 59071U 24039U   24125.53178203  .00004430  00000+0  42777-3 0  9993
2 59071  95.4012  67.8270 0174866 132.4097 229.2069 14.82221492  9647
